[{"addr1":"Porter","city":"Tanjungampalu","type":"BILL"},
{"addr1":"Macpherson","city":"Fontinha","state":"06","zip":"3060-323","type":"SHIP"},
{"addr1":"Helena","city":"Dusun Tengah Cihaurbeuti","type":"SHIP"},
{"addr1":"Dayton","city":"Jiamaying","type":"SHIP"},
{"addr1":"Kedzie","city":"Monterrey","type":"BILL"},
{"addr1":"Cordelia","city":"Lushnjë","type":"SHIP"},
{"addr1":"Clyde Gallagher","addr2":42,"city":"Tungi","zip":"1230","type":"BILL"},
{"addr1":"Surrey","city":"San Jose","state":"SLP","zip":"78783","type":"BILL"},
{"addr1":"Jenna","addr2":65,"city":"San Francisco de Macorís","zip":"10902","type":"BILL"},
{"addr1":"Bultman","city":"De la Paz","zip":"7105","type":"BILL"},
{"addr1":"Schlimgen","addr2":41,"city":"Uzgen","type":"BILL"},
{"addr1":"Leroy","city":"Mangere","zip":"2154","type":"SHIP"},
{"addr1":"Maple Wood","city":"Monastir","type":"BILL"},
{"addr1":"Kipling","city":"Longos","state":"03","zip":"4805-196","type":"BILL"},
{"addr1":"Fulton","city":"San Roque","zip":"6415","type":"BILL"},
{"addr1":"Bellgrove","city":"Curridabat","zip":"11801","type":"SHIP"},
{"addr1":"Cherokee","city":"Ogwashi-Uku","type":"BILL"},
{"addr1":"Manufacturers","city":"Tinalmud","zip":"1531","type":"SHIP"},
{"addr1":"Hudson","city":"Ban Nahin","type":"BILL"},
{"addr1":"Mariners Cove","city":"Changsha","type":"SHIP"},
{"addr1":"Badeau","city":"Tapon","zip":"6035","type":"SHIP"},
{"addr1":"Sunfield","city":"Tomakomai","zip":"882-1622","type":"BILL"},
{"addr1":"Merrick","addr2":12,"city":"HanHuang","type":"BILL"},
{"addr1":"Armistice","city":"El Doncello","zip":"181019","type":"BILL"},
{"addr1":"Sullivan","city":"Parabon","type":"SHIP"},
{"addr1":"Birchwood","city":"Stará Paka","zip":"507 91","type":"SHIP"},
{"addr1":"Lakewood Gardens","city":"Barat","type":"BILL"},
{"addr1":"Vernon","city":"Damanhūr","type":"BILL"},
{"addr1":"Warrior","city":"Baozi","type":"SHIP"},
{"addr1":"Marcy","city":"Senovo","zip":"8281","type":"SHIP"},
{"addr1":"Veith","city":"Morelos","state":"VER","zip":"93820","type":"BILL"},
{"addr1":"Bashford","city":"Pshekhskaya","zip":"352604","type":"SHIP"},
{"addr1":"Warner","city":"Darma","type":"BILL"},
{"addr1":"Bowman","city":"Heshang","type":"SHIP"},
{"addr1":"Miller","city":"Milovice","zip":"768 02","type":"BILL"},
{"addr1":"Paget","city":"Shuicha","type":"BILL"},
{"addr1":"Dayton","city":"Gaohong","type":"BILL"},
{"addr1":"Pearson","city":"Arraial do Cabo","zip":"28930-000","type":"BILL"},
{"addr1":"Pawling","city":"Rukunlima Bawah","type":"SHIP"},
{"addr1":"Jenna","city":"Partille","state":"O","zip":"433 84","type":"SHIP"},
{"addr1":"Marquette","city":"Zarechnyy","zip":"442965","type":"SHIP"},
{"addr1":"Evergreen","city":"Sidaohezi","type":"SHIP"},
{"addr1":"Duke","addr2":6,"city":"Korolevo","type":"BILL"},
{"addr1":"Lakewood Gardens","city":"Chuncheng","type":"BILL"},
{"addr1":"Di Loreto","city":"Fort Portal","type":"SHIP"},
{"addr1":"Hallows","city":"Cañete","type":"BILL"},
{"addr1":"Independence","city":"Várzea de Sintra","state":"11","zip":"2710-106","type":"BILL"},
{"addr1":"Northwestern","city":"Zoushi","type":"BILL"},
{"addr1":"Di Loreto","city":"Shnogh","type":"SHIP"},
{"addr1":"Westport","city":"Bureng","type":"BILL"},
{"addr1":"Harper","city":"Coishco","type":"SHIP"},
{"addr1":"Declaration","addr2":64,"city":"Curahnongko","type":"SHIP"},
{"addr1":"West","city":"Haradzishcha","type":"SHIP"},
{"addr1":"Badeau","addr2":52,"city":"Batulawang","type":"SHIP"},
{"addr1":"Loeprich","city":"Tiznit","type":"SHIP"},
{"addr1":"Browning","city":"Itajaí","zip":"88300-000","type":"SHIP"},
{"addr1":"Cottonwood","city":"Birni N Konni","type":"SHIP"},
{"addr1":"Grim","city":"Sananrejo","type":"BILL"},
{"addr1":"Hansons","city":"Wisznice","zip":"21-580","type":"SHIP"},
{"addr1":"Nancy","city":"Roshnik","type":"BILL"},
{"addr1":"Hayes","city":"Linshi","type":"SHIP"},
{"addr1":"Loftsgordon","city":"Sigetec","zip":"48321","type":"SHIP"},
{"addr1":"Thompson","city":"Karangkedawung","type":"SHIP"},
{"addr1":"David","city":"Kefar Shemaryahu","type":"SHIP"},
{"addr1":"Rutledge","city":"Yenagoa","type":"SHIP"},
{"addr1":"Forest","city":"Cantagallo","zip":"135067","type":"BILL"},
{"addr1":"Dovetail","city":"Vindeln","state":"AC","zip":"922 81","type":"BILL"},
{"addr1":"Park Meadow","city":"Karanganyarkrajan","type":"BILL"},
{"addr1":"Esker","city":"Ágios Stéfanos","type":"BILL"},
{"addr1":"Dawn","city":"Kandete","type":"BILL"},
{"addr1":"Kings","city":"Meylan","state":"B9","zip":"38244 CEDEX","type":"BILL"},
{"addr1":"Hagan","city":"Nanhe","type":"BILL"},
{"addr1":"Tennyson","city":"Mocun","type":"SHIP"},
{"addr1":"Namekagon","city":"Hongde","type":"SHIP"},
{"addr1":"Pepper Wood","city":"Kalmar","state":"H","zip":"392 47","type":"SHIP"},
{"addr1":"Maywood","city":"Bejuco","type":"BILL"},
{"addr1":"Mendota","city":"Jixi","type":"BILL"},
{"addr1":"Leroy","city":"Yishui","type":"SHIP"},
{"addr1":"Prairieview","city":"Ninghai","type":"SHIP"},
{"addr1":"Grover","city":"Kang-neung","type":"SHIP"},
{"addr1":"Lindbergh","city":"Campos do Jordão","zip":"12460-000","type":"BILL"},
{"addr1":"6th","city":"Yazd","type":"SHIP"},
{"addr1":"Shoshone","city":"Boé","state":"97","zip":"47555 CEDEX","type":"BILL"},
{"addr1":"Northport","city":"San Rafael Oriente","type":"BILL"},
{"addr1":"Pine View","city":"Limbe","type":"SHIP"},
{"addr1":"Clyde Gallagher","city":"Haokou","type":"BILL"},
{"addr1":"Melvin","city":"Bamiantong","type":"BILL"},
{"addr1":"Jana","city":"Xinxing","type":"SHIP"},
{"addr1":"Glacier Hill","addr2":97,"city":"Likwatang Timur","type":"SHIP"},
{"addr1":"6th","city":"Pinagsibaan","zip":"0801","type":"SHIP"},
{"addr1":"Jackson","city":"Toride","zip":"302-0004","type":"SHIP"},
{"addr1":"Pankratz","city":"Borovlyany","type":"SHIP"},
{"addr1":"Fordem","city":"Wagini","type":"SHIP"},
{"addr1":"Annamark","addr2":28,"city":"Talanga","type":"SHIP"},
{"addr1":"Lawn","addr2":16,"city":"Luxi","type":"BILL"},
{"addr1":"Eagan","city":"Habiganj","zip":"7903","type":"BILL"},
{"addr1":"Hayes","city":"Talon","type":"BILL"},
{"addr1":"Chinook","city":"Córdoba","zip":"523548","type":"BILL"},
{"addr1":"Heffernan","city":"Kapitanivka","type":"BILL"},
{"addr1":"Mendota","addr2":29,"city":"Huayang","type":"SHIP"}]